NORAD_CAT_ID,OBJECT_NAME,OBJECT_TYPE,EPOCH,MEAN_MOTION,ECCENTRICITY,INCLINATION,RA_OF_ASC_NODE,ARG_OF_PERICENTER,MEAN_ANOMALY,BSTAR,MEAN_MOTION_DOT,MEAN_MOTION_DDOT,TLE_LINE0,TLE_LINE1,TLE_LINE2,SEMIMAJOR_AXIS,PERIOD,APOGEE,PERIGEE,DECAYED
49435.0,STARLINK-3117,PAYLOAD,2023-06-03 22:33:38,15.08844546,0.0001203,53.2181,62.0644,93.867,266.246,0.00014578,2.033e-05,0.0,0 STARLINK-3117,1 49435U 21104AD  23154.94003469  .00002033  00000-0  14578-3 0  9999,2 49435  53.2181  62.0644 0001203  93.8670 266.2460 15.08844546 86474,6917.866,95.437,540.564,538.899,0.0
49435.0,STARLINK-3117,PAYLOAD,2023-06-04 00:09:02,15.08848238,0.0001214,53.2175,61.768,95.4838,264.6292,0.0002287,3.355e-05,0.0,0 STARLINK-3117,1 49435U 21104AD  23155.00627360  .00003355  00000-0  22870-3 0  9991,2 49435  53.2175  61.7680 0001214  95.4838 264.6292 15.08848238 87567,6917.855,95.437,540.56,538.88,0.0
49435.0,STARLINK-3117,PAYLOAD,2023-06-04 03:19:48,15.08851108,0.0001263,53.2175,61.1729,94.5911,265.5225,0.00038816,5.897e-05,0.0,0 STARLINK-3117,1 49435U 21104AD  23155.13875338  .00005897  00000-0  38816-3 0  9995,2 49435  53.2175  61.1729 0001263  94.5911 265.5225 15.08851108 86500,6917.846,95.437,540.585,538.838,0.0
49435.0,STARLINK-3117,PAYLOAD,2023-06-04 22:24:26,15.08839275,0.0001274,53.2174,57.6044,93.4703,266.6435,0.00013481,1.858e-05,0.0,0 STARLINK-3117,1 49435U 21104AD  23155.93363889  .00001858  00000-0  13481-3 0  9990,2 49435  53.2174  57.6044 0001274  93.4703 266.6435 15.08839275 86627,6917.883,95.438,540.629,538.866,0.0
49435.0,STARLINK-3117,PAYLOAD,2023-06-05 03:10:35,15.08847945,0.000127,53.2179,56.7122,88.7542,271.3596,0.00025674,3.801e-05,0.0,0 STARLINK-3117,1 49435U 21104AD  23156.13235507  .00003801  00000-0  25674-3 0  9995,2 49435  53.2179  56.7122 0001270  88.7542 271.3596 15.08847945 87730,6917.856,95.437,540.6,538.843,0.0
49435.0,STARLINK-3117,PAYLOAD,2023-06-05 20:39:50,15.08842908,0.0001387,53.2179,53.4408,88.9784,271.1367,5.9784e-05,6.64e-06,0.0,0 STARLINK-3117,1 49435U 21104AD  23156.86099653  .00000664  00000-0  59784-4 0  9999,2 49435  53.2179  53.4408 0001387  88.9784 271.1367 15.08842908 86760,6917.872,95.437,540.696,538.777,0.0
49435.0,STARLINK-3117,PAYLOAD,2023-06-05 23:50:36,15.08846086,0.0001377,53.2179,52.846,90.3634,269.7516,7.9787e-05,9.82e-06,0.0,0 STARLINK-3117,1 49435U 21104AD  23156.99347488  .00000982  00000-0  79787-4 0  9993,2 49435  53.2179  52.8460 0001377  90.3634 269.7516 15.08846086 87863,6917.862,95.437,540.679,538.774,0.0
49435.0,STARLINK-3117,PAYLOAD,2023-06-06 03:01:22,15.08849258,0.0001353,53.2182,52.2509,91.9485,268.1662,0.00011367,1.522e-05,0.0,0 STARLINK-3117,1 49435U 21104AD  23157.12595171  .00001522  00000-0  11367-3 0  9993,2 49435  53.2182  52.2509 0001353  91.9485 268.1662 15.08849258 86802,6917.852,95.437,540.653,538.781,0.0
49435.0,STARLINK-3117,PAYLOAD,2023-06-07 02:52:09,15.08850746,0.0001334,53.2178,47.7903,84.5706,275.5438,0.00017129,2.44e-05,0.0,0 STARLINK-3117,1 49435U 21104AD  23158.11955042  .00002440  00000-0  17129-3 0  9992,2 49435  53.2178  47.7903 0001334  84.5706 275.5438 15.08850746 88031,6917.848,95.437,540.635,538.79,0.0
49435.0,STARLINK-3117,PAYLOAD,2023-06-07 17:10:38,15.0883568,0.0001332,53.2179,45.115,94.9226,265.1918,-5.717e-05,-1.198e-05,0.0,0 STARLINK-3117,1 49435U 21104AD  23158.71571858 -.00001198  00000-0 -57170-4 0  9999,2 49435  53.2179  45.1150 0001332  94.9226 265.1918 15.08835680 88126,6917.894,95.438,540.68,538.837,0.0
49435.0,STARLINK-3117,PAYLOAD,2023-06-07 21:56:47,15.08834961,0.0001344,53.2182,44.2227,96.9473,263.1672,-7.3748e-05,-1.461e-05,0.0,0 STARLINK-3117,1 49435U 21104AD  23158.91443879 -.00001461  00000-0 -73748-4 0  9994,2 49435  53.2182  44.2227 0001344  96.9473 263.1672 15.08834961 87073,6917.896,95.438,540.691,538.831,0.0
49435.0,STARLINK-3117,PAYLOAD,2023-06-07 23:32:10,15.08838339,0.0001227,53.2183,43.9262,94.8019,265.3113,9.0852e-06,-1.43e-06,0.0,0 STARLINK-3117,1 49435U 21104AD  23158.98068074 -.00000143  00000-0  90852-5 0  9992,2 49435  53.2183  43.9262 0001227  94.8019 265.3113 15.08838339 87080,6917.885,95.438,540.599,538.902,0.0
49435.0,STARLINK-3117,PAYLOAD,2023-06-09 00:58:19,15.08855007,0.0001113,53.2176,39.1687,93.9722,266.1397,0.00012014,1.625e-05,0.0,0 STARLINK-3117,1 49435U 21104AD  23160.04050924  .00001625  00000-0  12014-3 0  9994,2 49435  53.2176  39.1687 0001113  93.9722 266.1397 15.08855007 88327,6917.835,95.437,540.469,538.93,0.0
49435.0,STARLINK-3117,PAYLOAD,2023-06-09 08:55:16,15.08838478,0.0001578,53.2174,37.6808,84.4984,275.6188,-1.8152e-05,-5.77e-06,0.0,0 STARLINK-3117,1 49435U 21104AD  23160.37171869 -.00000577  00000-0 -18152-4 0  9999,2 49435  53.2174  37.6808 0001578  84.4984 275.6188 15.08838478 88374,6917.885,95.438,540.842,538.658,0.0
49435.0,STARLINK-3117,PAYLOAD,2023-06-10 08:46:04,15.08836075,0.0001392,53.2173,33.2216,79.3663,280.7486,2.968e-05,1.84e-06,0.0,0 STARLINK-3117,1 49435U 21104AD  23161.36532458  .00000184  00000-0  29680-4 0  9994,2 49435  53.2173  33.2216 0001392  79.3663 280.7486 15.08836075 87445,6917.892,95.438,540.72,538.794,0.0
49435.0,STARLINK-3117,PAYLOAD,2023-06-10 21:29:08,15.08848999,0.0001212,53.2172,30.8431,88.8997,271.2134,5.9491e-05,6.59e-06,0.0,0 STARLINK-3117,1 49435U 21104AD  23161.89523946  .00000659  00000-0  59491-4 0  9994,2 49435  53.2172  30.8431 0001212  88.8997 271.2134 15.08848999 87524,6917.853,95.437,540.556,538.879,0.0
49435.0,STARLINK-3117,PAYLOAD,2023-06-11 00:39:55,15.08846131,0.0001277,53.2166,30.2484,83.9576,276.1562,9.8571e-05,1.281e-05,0.0,0 STARLINK-3117,1 49435U 21104AD  23162.02772032  .00001281  00000-0  98571-4 0  9996,2 49435  53.2166  30.2484 0001277  83.9576 276.1562 15.08846131 88626,6917.862,95.437,540.61,538.843,0.0
49435.0,STARLINK-3117,PAYLOAD,2023-06-11 08:36:50,15.08844495,0.0001216,53.2166,28.7621,83.7973,276.3158,8.953e-05,1.137e-05,0.0,0 STARLINK-3117,1 49435U 21104AD  23162.35892107  .00001137  00000-0  89530-4 0  9993,2 49435  53.2166  28.7621 0001216  83.7973 276.3158 15.08844495 87592,6917.867,95.437,540.573,538.89,0.0
49435.0,STARLINK-3117,PAYLOAD,2023-06-11 14:58:23,15.08835518,0.0001331,53.2167,27.5721,82.5708,277.5435,0.00034125,5.147e-05,0.0,0 STARLINK-3117,1 49435U 21104AD  23162.62388707  .00005147  00000-0  34125-3 0  9993,2 49435  53.2167  27.5721 0001331  82.5708 277.5435 15.08835518 88714,6917.894,95.438,540.68,538.838,0.0
49435.0,STARLINK-3117,PAYLOAD,2023-06-11 21:19:55,15.08849449,0.0001262,53.2166,26.3832,80.9591,279.1544,0.0002948,4.408e-05,0.0,0 STARLINK-3117,1 49435U 21104AD  23162.88883927  .00004408  00000-0  29480-3 0  9992,2 49435  53.2166  26.3832 0001262  80.9591 279.1544 15.08849449 87679,6917.852,95.437,540.59,538.843,0.0
49435.0,STARLINK-3117,PAYLOAD,2023-06-12 08:27:37,15.08845185,0.0001262,53.2167,24.3003,88.3478,271.7659,0.00011984,1.62e-05,0.0,0 STARLINK-3117,1 49435U 21104AD  23163.35251999  .00001620  00000-0  11984-3 0  9996,2 49435  53.2167  24.3003 0001262  88.3478 271.7659 15.08845185 88820,6917.865,95.437,540.603,538.857,0.0
49435.0,STARLINK-3117,PAYLOAD,2023-06-12 21:10:43,15.08838739,0.0001331,53.2169,21.9214,87.0355,273.0789,1.1995e-05,-9.7e-07,0.0,0 STARLINK-3117,1 49435U 21104AD  23163.88244351 -.00000097  00000-0  11995-4 0  9999,2 49435  53.2169  21.9214 0001331  87.0355 273.0789 15.08838739 88901,6917.884,95.438,540.67,538.828,0.0
49435.0,STARLINK-3117,PAYLOAD,2023-06-13 14:39:57,15.08841653,0.000138,53.2176,18.6503,98.0489,262.066,9.3086e-06,-1.4e-06,0.0,0 STARLINK-3117,1 49435U 21104AD  23164.61108342 -.00000140  00000-0  93086-5 0  9991,2 49435  53.2176  18.6503 0001380  98.0489 262.0660 15.08841653 87934,6917.875,95.437,540.695,538.786,0.0
49435.0,STARLINK-3117,PAYLOAD,2023-06-13 21:01:30,15.08842298,0.0001243,53.2177,17.4636,85.4348,274.6786,6.0654e-05,6.78e-06,0.0,0 STARLINK-3117,1 49435U 21104AD  23164.87604179  .00000678  00000-0  60654-4 0  9997,2 49435  53.2177  17.4636 0001243  85.4348 274.6786 15.08842298 87979,6917.873,95.437,540.598,538.878,0.0
49435.0,STARLINK-3117,PAYLOAD,2023-06-14 00:12:16,15.088458,0.0001301,53.2171,16.8676,91.9703,268.1438,7.0938e-05,8.41e-06,0.0,0 STARLINK-3117,1 49435U 21104AD  23165.00851874  .00000841  00000-0  70938-4 0  9997,2 49435  53.2171  16.8676 0001301  91.9703 268.1438 15.08845800 89079,6917.863,95.437,540.628,538.828,0.0
49435.0,STARLINK-3117,PAYLOAD,2023-06-14 14:30:45,15.08832004,0.0001329,53.2168,14.1901,90.3264,269.7881,5.8988e-05,6.51e-06,0.0,0 STARLINK-3117,1 49435U 21104AD  23165.60468919  .00000651  00000-0  58988-4 0  9997,2 49435  53.2168  14.1901 0001329  90.3264 269.7881 15.08832004 88083,6917.905,95.438,540.689,538.85,0.0
49435.0,STARLINK-3117,PAYLOAD,2023-06-15 00:03:03,15.08837962,0.0001315,53.218,12.4051,89.3239,270.7904,7.6959e-05,9.37e-06,0.0,0 STARLINK-3117,1 49435U 21104AD  23166.00212575  .00000937  00000-0  76959-4 0  9992,2 49435  53.2180  12.4051 0001315  89.3239 270.7904 15.08837962 89222,6917.887,95.438,540.661,538.842,0.0
49435.0,STARLINK-3117,PAYLOAD,2023-06-15 17:32:18,15.08834763,0.0001187,53.2177,9.1338,97.4213,262.6914,8.552e-05,1.073e-05,0.0,0 STARLINK-3117,1 49435U 21104AD  23166.73076887  .00001073  00000-0  85520-4 0  9992,2 49435  53.2177   9.1338 0001187  97.4213 262.6914 15.08834763 88257,6917.896,95.438,540.583,538.94,0.0
49435.0,STARLINK-3117,PAYLOAD,2023-06-16 06:15:22,15.08847071,0.0001122,53.2179,6.7571,89.3621,270.7499,6.8714e-05,8.06e-06,0.0,0 STARLINK-3117,1 49435U 21104AD  23167.26068220  .00000806  00000-0  68714-4 0  9992,2 49435  53.2179   6.7571 0001122  89.3621 270.7499 15.08847071 89416,6917.859,95.437,540.5,538.948,0.0
49435.0,STARLINK-3117,PAYLOAD,2023-06-16 12:36:56,15.08823979,0.0001043,53.2183,5.568,99.9801,260.1308,0.00047339,7.251e-05,0.0,0 STARLINK-3117,1 49435U 21104AD  23167.52565151  .00007251  00000-0  47339-3 0  9996,2 49435  53.2183   5.5680 0001043  99.9801 260.1308 15.08823979 88375,6917.929,95.439,540.516,539.073,0.0
